KUIPER-00567            
1 69626U 26140AL  26189.55877067  .00027324  00000+0  71754-3 0  9997
2 69626  51.8774 295.2070 0013120 249.6421 110.3157 15.38339815  4528
KUIPER-00573            
1 69627U 26140AM  26189.57091765  .00016064  00000+0  44138-3 0  9998
2 69627  51.8791 295.2874 0009385 259.5446 100.4484 15.37335122  4524
KZ-11 R/B               
1 69628U 26138H   26189.49386774  .00787186  96422-5  81532-3 0  9992
2 69628  55.1538 187.6334 0404553 132.6938 230.8922 15.36102923  3219
ZHUQUE-2E DEB           
1 69629U 26128D   26189.57998052  .00262976  00000+0  14488-2 0  9990
2 69629  54.5332 201.8191 0048341  20.7219 339.5766 15.76771451  4556
ZHUQUE-2E DEB           
1 69630U 26128E   26189.51445938  .00013780  00000+0  15844-3 0  9991
2 69630  54.5281 204.0708 0078474  30.4860 330.0698 15.58675162  4507
ZHUQUE-2E DEB           
1 69631U 26128F   26189.50527128  .00223396  00000+0  17613-2 0  9994
2 69631  54.5238 203.3920 0061208  22.9117 337.4628 15.67782131  4516
ZHUQUE-2E DEB           
1 69634U 26128J   26188.48815593  .07030403  11686-4  39749-2 0  9992
2 69634  54.5137 204.7279 0028747  55.3810 304.9951 16.17421222  4289
CENTISPACE-1 GROUP 05 O*
1 69636U 26138J   26189.53324919 -.00000379  00000+0 -11398-3 0  9997
2 69636  55.1384 202.2994 0009127 329.8316  30.2132 14.15844149  3013
VICTUS HAZE PUMA        
1 69646U 26142A   26189.59991987  .00002714  00000+0  12528-3 0  9993
2 69646  97.4474  86.9797 0025170 290.5091  69.3443 15.20816702  2929
HOKUSHIN-1              
1 69648U 98067YH  26189.59156092  .00017108  00000+0  29860-3 0  9990
2 69648  51.6309 194.0003 0006077 305.2092  54.8327 15.50784504  2973
STARLINK-37656          
1 69649U 26143A   26189.50002315 -.01566698  00000+0 -30653-1 0  9992
2 69649  97.2852 233.3184 0001484 118.7138 247.2480 15.50346210  3882
STARLINK-37646          
1 69650U 26143B   26189.50002315 -.02454986  00000+0 -26638-1 0  9999
2 69650  97.2844 233.4471 0001437  93.1247 214.1847 15.66805680  3888
STARLINK-37749          
1 69651U 26143C   26189.50002315 -.01037500  00000+0 -12988-1 0  9991
2 69651  97.2847 233.4492 0001743  96.1051 211.8402 15.62546326  3887
STARLINK-37819          
1 69652U 26143D   26189.50002315 -.02488819  00000+0 -34026-1 0  9993
2 69652  97.2844 233.4255 0002129 106.7141 148.2182 15.61022683  3881
STARLINK-37729          
1 69653U 26143E   26189.50002315  .00183218  00000+0  88347-3 0  9992
2 69653  97.2841 233.4973 0000967 181.3798 239.2334 15.82105292  3882
STARLINK-37838          
1 69654U 26143F   26189.50002315 -.01526754  00000+0 -14932-1 0  9999
2 69654  97.2848 233.4630 0001291  65.3649 279.1598 15.68869468  3888
STARLINK-37884          
1 69655U 26143G   26189.50002315 -.02402384  00000+0 -38093-1 0  9997
2 69655  97.2852 233.4255 0002085  92.6777 155.4282 15.56996738  3888
STARLINK-37876          
1 69656U 26143H   26189.50002315 -.02461606  00000+0 -25380-1 0  9995
2 69656  97.2849 233.4695 0001000  83.4922 277.2084 15.68069537  3782
STARLINK-37784          
1 69657U 26143J   26189.50002315 -.02353373  00000+0 -33921-1 0  9997
2 69657  97.2856 233.4322 0001753  93.1278 175.0997 15.59442018  3782
STARLINK-37851          
1 69658U 26143K   26189.50002315 -.02387387  00000+0 -26415-1 0  9990
2 69658  97.2850 233.4755 0001010 107.9367 262.1619 15.66231492  3774
STARLINK-37229          
1 69659U 26143L   26189.50002315 -.02445662  00000+0 -30427-1 0  9990
2 69659  97.2852 233.4439 0001644  97.1636 195.3755 15.63373700  3828
STARLINK-37556          
1 69660U 26143M   26189.50002315 -.02506819  00000+0 -27260-1 0  9995
2 69660  97.2846 233.4520 0001230 101.7283 218.7100 15.66829141  3827
STARLINK-37867          
1 69661U 26143N   26189.50002315 -.02417099  00000+0 -27931-1 0  9992
2 69661  97.2854 233.4764 0001268  91.1462 280.3517 15.65192508  3780
STARLINK-37852          
1 69662U 26143P   26189.50002315 -.02356923  00000+0 -35056-1 0  9998
2 69662  97.2854 233.4217 0001905  94.7784 149.4077 15.58621885  3781
STARLINK-37554          
1 69663U 26143Q   26189.50002315 -.02460221  00000+0 -29526-1 0  9991
2 69663  97.2849 233.4563 0001371  79.1236 252.2871 15.64306986  3825
STARLINK-37830          
1 69664U 26143R   26189.50002315 -.02382182  00000+0 -32730-1 0  9992
2 69664  97.2853 233.4386 0001643 105.7890 176.7368 15.60735375  3777
STARLINK-37837          
1 69665U 26143S   26189.50002315 -.02516494  00000+0 -26948-1 0  9992
2 69665  97.2850 233.4673 0001138 107.0154 249.0012 15.67221889  3789
STARLINK-37943          
1 69666U 26143T   26189.50002315 -.01250811  00000+0 -16459-1 0  9996
2 69666  97.2854 233.4339 0001663  97.3225 177.7593 15.61336374  3787
STARLINK-37941          
1 69667U 26143U   26189.50002315 -.02459124  00000+0 -29884-1 0  9992
2 69667  97.2850 233.4548 0001357  91.0558 237.2293 15.63990736  3785
STARLINK-37930          
1 69668U 26143V   26189.50002315 -.01695183  00000+0 -20685-1 0  9999
2 69668  97.2851 233.4509 0001558 104.8426 205.9007 15.63717084  3771
