OBJECT_NAME,OBJECT_ID,EPOCH,MEAN_MOTION,ECCENTRICITY,INCLINATION,RA_OF_ASC_NODE,ARG_OF_PERICENTER,MEAN_ANOMALY,EPHEMERIS_TYPE,CLASSIFICATION_TYPE,NORAD_CAT_ID,ELEMENT_SET_NO,REV_AT_EPOCH,BSTAR,MEAN_MOTION_DOT,MEAN_MOTION_DDOT
KUIPER-00567,2026-140AL,2026-07-08T13:24:37.785888,15.38339815,.00131204,51.8774,295.2070,249.6421,110.3157,0,U,69626,999,452,.71754088E-3,.27324E-3,0
KUIPER-00573,2026-140AM,2026-07-08T13:42:07.284960,15.37335122,.00093851,51.8791,295.2874,259.5446,100.4484,0,U,69627,999,452,.44137978E-3,.16064E-3,0
KZ-11 R/B,2026-138H,2026-07-08T11:51:10.172736,15.36102923,.04045533,55.1538,187.6334,132.6938,230.8922,0,U,69628,999,321,.81531887E-3,.787186E-2,.9642193E-5
ZHUQUE-2E DEB,2026-128D,2026-07-08T13:55:10.316928,15.76771451,.00483417,54.5332,201.8191,20.7219,339.5766,0,U,69629,999,455,.14487921E-2,.262976E-2,0
ZHUQUE-2E DEB,2026-128E,2026-07-08T12:20:49.290432,15.58675162,.0078474,54.5281,204.0708,30.4860,330.0698,0,U,69630,999,450,.15843761E-3,.1378E-3,0
ZHUQUE-2E DEB,2026-128F,2026-07-08T12:07:35.438592,15.67782131,.00612087,54.5238,203.3920,22.9117,337.4628,0,U,69631,999,451,.17613223E-2,.223396E-2,0
ZHUQUE-2E DEB,2026-128J,2026-07-07T11:42:56.672352,16.17421222,.00287472,54.5137,204.7279,55.3810,304.9951,0,U,69634,999,428,.39749262E-2,.7030403E-1,.11686213E-4
CENTISPACE-1 GROUP 05 OBJECT J,2026-138J,2026-07-08T12:47:52.730016,14.15844149,.00091278,55.1384,202.2994,329.8316,30.2132,0,U,69636,999,301,-.11397916E-3,-.379E-5,0
VICTUS HAZE PUMA,2026-142A,2026-07-08T14:23:53.076768,15.20816702,.00251701,97.4474,86.9797,290.5091,69.3443,0,U,69646,999,292,.12528489E-3,.2714E-4,0
HOKUSHIN-1,1998-067YH,2026-07-08T14:11:50.863488,15.50784504,.00060779,51.6309,194.0003,305.2092,54.8327,0,U,69648,999,297,.29859675E-3,.17108E-3,0
STARLINK-37656,2026-143A,2026-07-08T12:00:02.000160,15.50346210,.00014849,97.2852,233.3184,118.7138,247.2480,0,U,69649,999,388,-.30652666E-1,-.1566698E-1,0
STARLINK-37646,2026-143B,2026-07-08T12:00:02.000160,15.66805680,.00014379,97.2844,233.4471,93.1247,214.1847,0,U,69650,999,388,-.26637848E-1,-.2454986E-1,0
STARLINK-37749,2026-143C,2026-07-08T12:00:02.000160,15.62546326,.00017431,97.2847,233.4492,96.1051,211.8402,0,U,69651,999,388,-.12987576E-1,-.10375E-1,0
STARLINK-37819,2026-143D,2026-07-08T12:00:02.000160,15.61022683,.00021293,97.2844,233.4255,106.7141,148.2182,0,U,69652,999,388,-.34025825E-1,-.2488819E-1,0
STARLINK-37729,2026-143E,2026-07-08T12:00:02.000160,15.82105292,.00009672,97.2841,233.4973,181.3798,239.2334,0,U,69653,999,388,.88347359E-3,.183218E-2,0
STARLINK-37838,2026-143F,2026-07-08T12:00:02.000160,15.68869468,.00012913,97.2848,233.4630,65.3649,279.1598,0,U,69654,999,388,-.14931679E-1,-.1526754E-1,0
STARLINK-37884,2026-143G,2026-07-08T12:00:02.000160,15.56996738,.00020856,97.2852,233.4255,92.6777,155.4282,0,U,69655,999,388,-.38092907E-1,-.2402384E-1,0
STARLINK-37876,2026-143H,2026-07-08T12:00:02.000160,15.68069537,.00010004,97.2849,233.4695,83.4922,277.2084,0,U,69656,999,378,-.25380472E-1,-.2461606E-1,0
STARLINK-37784,2026-143J,2026-07-08T12:00:02.000160,15.59442018,.00017535,97.2856,233.4322,93.1278,175.0997,0,U,69657,999,378,-.33921483E-1,-.2353373E-1,0
STARLINK-37851,2026-143K,2026-07-08T12:00:02.000160,15.66231492,.00010109,97.2850,233.4755,107.9367,262.1619,0,U,69658,999,377,-.26414884E-1,-.2387387E-1,0
STARLINK-37229,2026-143L,2026-07-08T12:00:02.000160,15.63373700,.00016443,97.2852,233.4439,97.1636,195.3755,0,U,69659,999,382,-.30427052E-1,-.2445662E-1,0
STARLINK-37556,2026-143M,2026-07-08T12:00:02.000160,15.66829141,.00012303,97.2846,233.4520,101.7283,218.7100,0,U,69660,999,382,-.27260033E-1,-.2506819E-1,0
STARLINK-37867,2026-143N,2026-07-08T12:00:02.000160,15.65192508,.00012683,97.2854,233.4764,91.1462,280.3517,0,U,69661,999,378,-.27930811E-1,-.2417099E-1,0
STARLINK-37852,2026-143P,2026-07-08T12:00:02.000160,15.58621885,.00019052,97.2854,233.4217,94.7784,149.4077,0,U,69662,999,378,-.35055922E-1,-.2356923E-1,0
STARLINK-37554,2026-143Q,2026-07-08T12:00:02.000160,15.64306986,.00013717,97.2849,233.4563,79.1236,252.2871,0,U,69663,999,382,-.29525914E-1,-.2460221E-1,0
STARLINK-37830,2026-143R,2026-07-08T12:00:02.000160,15.60735375,.00016439,97.2853,233.4386,105.7890,176.7368,0,U,69664,999,377,-.32729738E-1,-.2382182E-1,0
STARLINK-37837,2026-143S,2026-07-08T12:00:02.000160,15.67221889,.00011385,97.2850,233.4673,107.0154,249.0012,0,U,69665,999,378,-.26947602E-1,-.2516494E-1,0
STARLINK-37943,2026-143T,2026-07-08T12:00:02.000160,15.61336374,.00016635,97.2854,233.4339,97.3225,177.7593,0,U,69666,999,378,-.16458634E-1,-.1250811E-1,0
STARLINK-37941,2026-143U,2026-07-08T12:00:02.000160,15.63990736,.00013572,97.2850,233.4548,91.0558,237.2293,0,U,69667,999,378,-.29884206E-1,-.2459124E-1,0
STARLINK-37930,2026-143V,2026-07-08T12:00:02.000160,15.63717084,.00015587,97.2851,233.4509,104.8426,205.9007,0,U,69668,999,377,-.20685447E-1,-.1695183E-1,0
